id	name	latitude	longitude	streetAddress	addressLocality	addressRegion	postalCode	AddressCountry	facility	type
bath-magistrates-court	Bath Magistrates' Court	51.3811433659559	-2.352059077198345						Baby changing facility,Guide dogs,Parking,Video facilities,Refreshments,Disabled access,Loop Hearing,Interview room	Magistrates Court
leeds-employment-tribunal	Leeds Employment Tribunal	53.796828278433309833417297340929508209	-1.545355841064054880362732546927873045						Disabled access,Public toilets,Disabled toilet,First Aid,Guide dogs,Loop Hearing,Prayer / Quiet room,Interview room,Waiting Room	Tribunal
reading-crown-court	Reading Crown Court	51.45602442421904	-0.9668013792361519						Guide dogs,Interview room,Wireless network connection,Refreshments,Disabled access,Loop Hearing,Video facilities	Crown Court
mayor-s-and-city-of-london-court	Mayor's and City of London Court	51.51529145343864	-0.09134008447661877						Baby changing facility,Guide dogs,Interview room,Loop Hearing,Refreshments,Disabled access	
mid-and-south-east-northumberland-magistrates-court	Mid and South East Northumberland Magistrates' Court	55.13238541326667	-1.594101250731474						Loop Hearing,Baby changing facility,Guide dogs,Video facilities,Disabled access,Interview room,Parking	Magistrates Court
central-london-county-court	Central London County Court	51.5141431141754	-0.1137417030619409						Baby changing facility,Interview room,Loop Hearing,Refreshments,Disabled access,Guide dogs	County Court
chester-le-street-magistrates-court	Chester-le-Street Magistrates' Court	54.86138716492447	-1.57302151124027							Magistrates Court
gateshead-magistrates-court-and-family-court	Gateshead Magistrates' Court and Family Court	54.95902830652008	-1.600237509957054						Guide dogs,Interview room,Parking,Refreshments,Disabled access,Video facilities	Family court,Magistrates Court
gloucester-and-cheltenham-county-court-and-family-court	Gloucester and Cheltenham County Court and Family Court	51.86340338190962	-2.249396733867491						Baby changing facility,Guide dogs,Interview room,Parking,Refreshments,Disabled access	County Court,Family court
newport-gwent-civil-and-family-court	Newport (Gwent) County Court and Family Court	51.59101422862023	-2.992508816144505						Baby changing facility,Guide dogs,Loop Hearing,Video facilities,Prayer / Quiet room,Refreshments,Disabled access,Interview room,Public toilets,Waiting Room,Wireless network connection	County Court
bradford-tribunal-hearing-centre	Bradford Tribunal Hearing Centre	53.80101962274505	-1.711321038477923						Children facilities,Prayer / Quiet room,Disabled access,Loop Hearing,Baby changing facility,Public toilets,Video facilities,Interview room,Disabled toilet,Parking	Tribunal
leeds-social-security-and-child-support-tribunal	Leeds Social Security and Child Support Tribunal	53.79710397549839	-1.55139501516297						Loop Hearing,Interview room,Video facilities,Disabled access,Refreshments,Waiting Room,First Aid,Guide dogs,Public toilets	Tribunal
harrogate-magistrates-court-and-family-court	Harrogate Magistrates' Court and Family Court	53.99032493312922	-1.539637327095139						Baby changing facility,Guide dogs,Interview room,Loop Hearing,Video facilities,Refreshments,Disabled access,Disabled toilet	Family court,Magistrates Court
telford-county-court-and-family-court	Telford County Court and Family Court	52.67822271219396	-2.452256824005605						Baby changing facility,Children facilities,Loop Hearing,Refreshments,Disabled access,Interview room	Family court,County Court
weymouth-magistrates-court	Weymouth Magistrates' Court	50.60840159258562	-2.460105033875808						Guide dogs,Interview room,Loop Hearing,Parking,Video facilities,Disabled access,Refreshments	Magistrates Court
hartlepool-magistrates-court-and-family-hearing-court	Hartlepool Magistrates' Court and Family Hearing Court	54.68578198437893	-1.214005206139601						Guide dogs,Loop Hearing,Video facilities,Refreshments,Disabled access,Interview room	Family court,Magistrates Court
berwick-upon-tweed-magistrates-court	Berwick upon Tweed Magistrates' Court	55.76986356796875	-2.001886906844226						Interview room,Loop Hearing,Disabled access,No parking,Video facilities	Magistrates Court
chippenham-magistrates-court	Chippenham Magistrates' Court	51.45272554310827	-2.111181365804635							
birmingham-civil-and-family-justice-centre	Birmingham Civil and Family Justice Centre	52.48166041292815	-1.895528968759198						Baby changing facility,Guide dogs,Interview room,Loop Hearing,Video facilities,Refreshments,Wireless network connection	County Court,Family court
sunderland-magistrates-court-and-family-court	Sunderland Magistrates' Court and Family Court	54.90719932817427	-1.387828185884307						Interview room,Loop Hearing,Guide dogs,Disabled access,Video facilities,Parking,Refreshments	Magistrates Court,Family court
sheffield-magistrates-court	Sheffield Magistrates' Court	53.38519853604043	-1.464969589947553						Loop Hearing,Guide dogs,Baby changing facility,Video facilities,Disabled access,Interview room,Refreshments	Magistrates Court
durham-crown-court	Durham Crown Court	54.77409204504087	-1.567893652061245						Baby changing facility,Guide dogs,Loop Hearing,Wireless network connection,Video facilities	Crown Court
south-tyneside-magistrates-court-and-family-court	South Tyneside Magistrates' Court and Family Court	54.99302547863772	-1.439085846455114						Guide dogs,Interview room,Loop Hearing,Parking,Video facilities,Refreshments,Disabled access	Family court,Magistrates Court
teesside-magistrates-court-and-family-court	Teesside Magistrates' Court and Family Court	54.5735225552215	-1.234574282012128						Video facilities,Refreshments,Disabled access,Baby changing facility,Guide dogs,Interview room,Loop Hearing	Family court,Magistrates Court
york-magistrates-court-and-family-court	York Magistrates' Court and Family Court	53.95641364774229	-1.081907796767662						Loop Hearing,Video facilities,Interview room,Disabled access,Baby changing facility,First Aid,Guide dogs,Prayer / Quiet room,Public toilets,Waiting Room,Refreshments,Witness care	Family court,Magistrates Court
morpeth-and-berwick-county-court-and-family-court	Morpeth and Berwick County Court and Family Court	55.16678786018197	-1.690495842219978						Guide dogs,Loop Hearing,Disabled access,Interview room,Parking,Children facilities	County Court,Family court
middlesbrough-county-court-at-teesside-combined-court	Middlesbrough County Court at Teesside Combined Court	54.57520891853945	-1.231232180481667						Baby changing facility,Children facilities,Guide dogs,Interview room,Video facilities,Refreshments,Disabled access,Loop Hearing,Parking	County Court,Crown Court
basingstoke-county-court-and-family-court	Basingstoke County Court and Family Court	51.26331532818237	-1.083178243011578						Guide dogs,Interview room,Loop Hearing,Refreshments,Disabled access	County Court
west-cumbria-court-house	West Cumbria Court House	54.64397921486945	-3.542356035799508						Guide dogs,Interview room,Loop Hearing,Parking,Video facilities,Refreshments,Baby changing facility,Disabled access	County Court,Magistrates Court,Family court
truro-county-court-and-family-court	Truro County Court and Family Court	50.26554787935058	-5.056641850544778						Baby changing facility,Guide dogs,Interview room,Loop Hearing,Refreshments,Disabled access,Video facilities	Crown Court,Tribunal,Family court,County Court
huddersfield-county-court-and-family-court	Huddersfield County Court and Family Court	53.642143817099	-1.783451982742265						Baby changing facility,Guide dogs,Interview room,Refreshments,Disabled access,Disabled toilet,Public toilets,Loop Hearing,Waiting Room	Family court,County Court
gateshead-county-court-and-family-court	Gateshead County Court and Family Court	54.95902668805091	-1.600237635089249						Guide dogs,Interview room,Parking,Video facilities,Disabled access,Refreshments	Family court,County Court
chester-civil-and-family-justice-centre	Chester Civil and Family Justice Centre	53.18859317018731	-2.887015538064443						Video facilities,Disabled access,Baby changing facility,Interview room,Children facilities,Guide dogs,Loop Hearing	
doncaster-county-court-and-family-court	Doncaster County Court and Family Court	53.51904086127632	-1.134041122176764						Baby changing facility,Guide dogs,Interview room,Loop Hearing,Refreshments,Disabled access	Family court,County Court
weston-super-mare-county-court-and-family-court	Weston-Super-Mare County Court and Family Court	51.3608031593535	-2.90509473272019						Guide dogs,Interview room,Loop Hearing,Baby changing facility,Refreshments	Magistrates Court,Family court,County Court
lewes-combined-court-centre	Lewes Combined Court Centre	50.87298195727173	0.009512894623533011						Baby changing facility,Children facilities,Guide dogs,Interview room,Wireless network connection,Video facilities,Refreshments,Disabled access,No parking,Loop Hearing	Crown Court
amersham-law-courts	Amersham Law Courts	51.674723	-0.602837						Interview room,Disabled access,Loop Hearing,Refreshments	
hereford-county-court-and-family-court	Hereford County Court and Family Court	52.05616975171077	-2.717275776256729						Baby changing facility,Guide dogs,Interview room,Loop Hearing,Disabled access,Refreshments,Baby changing facility	Family court,County Court
salisbury-law-courts	Salisbury Law Courts	51.07340383179328	-1.810442743397547						Baby changing facility,Disabled access,Loop Hearing,Refreshments,Video facilities,Witness care,Wireless network connection,Guide dogs	County Court,Magistrates Court,Crown Court,Family court
burnley-combined-court-centre	Burnley Combined Court Centre	53.78772809430154	-2.247153367903415						Refreshments,Baby changing facility,Guide dogs,Interview room,Wireless network connection,Parking,Video facilities	Crown Court
chippenham-and-trowbridge-law-courts	Chippenham and Trowbridge Law Courts	51.45272554310827	-2.111181365804635						Baby changing facility,Guide dogs,Interview room,Loop Hearing,Parking,Refreshments	County Court,Magistrates Court,Family court
liverpool-knowsley-magistrates-court	Liverpool & Knowsley Magistrates Court	53.40915102354628	-2.986267951365752						Baby changing facility,Guide dogs,Interview room,Loop Hearing,Refreshments,Disabled access,Video facilities	Magistrates Court
southampton-combined-court-centre	Southampton Combined Court Centre	50.91370565726297	-1.402976893899652						Loop Hearing,Baby changing facility,Interview room,Video facilities,Disabled access,Guide dogs,Wireless network connection,Parking,Refreshments	Crown Court,County Court,Tribunal,Family court
portsmouth-combined-court-centre	Portsmouth Combined Court Centre	50.79577978014757	-1.091162333276412						Wireless network connection,Video facilities	Crown Court,County Court,Family court
winchester-combined-court-centre	Winchester Combined Court Centre	51.06254899810587	-1.319368671610841						Parking,Wireless network connection,Interview room,Video facilities,Refreshments,Disabled access,Baby changing facility,Guide dogs,Loop Hearing	County Court,Family court,Crown Court
barnstaple-county-court-and-family-court	Barnstaple County Court and Family Court	51.08134299066393	-4.065658583070042						Children facilities,Interview room,Loop Hearing,Parking,Refreshments,Disabled access,Guide dogs	County Court,Family court
hmcts-wales-and-the-south-west-enforcement-contact-centre	HMCTS Wales and the South West Enforcement Contact Centre	51.65423235442614	-3.023002610754116							
dorchester-crown-court	Dorchester Crown Court	50.71634793051921	-2.440042156349823						Guide dogs,Interview room,Loop Hearing,Disabled access	Crown Court
neath-magistrates-court-and-family-court	Neath Magistrates' Court and Family Court	51.66304334059604	-3.801910599729937						Video facilities,Refreshments,Disabled access,Waiting Room	Magistrates Court
bankruptcy-court-high-court	Bankruptcy Court (High Court)	51.51589416668207	-0.1096769831185954						Wireless network connection,Interview room,Baby changing facility,Loop Hearing,Video facilities	
aylesbury-crown-court	Aylesbury Crown Court	51.81566526941793	-0.8120318518490925						Interview room,Loop Hearing,No parking,Video facilities,Refreshments	Crown Court
tameside-magistrates-court	Tameside Magistrates' Court	53.48557639318307	-2.102120972524918						Baby changing facility,Guide dogs,Interview room,Loop Hearing,Parking,Video facilities,Refreshments,Disabled access	Magistrates Court
aldershot-magistrates-court	Aldershot Magistrates' Court	51.25032001515684	-0.7692978000956944						Guide dogs,Loop Hearing,Refreshments,Interview room,Video facilities,Disabled access,Video facilities	Magistrates Court
cardiff-probate-registry-of-wales	Cardiff Probate Registry of Wales	51.48211425037113	-3.166483685225312						Guide dogs,Disabled access	
central-london-employment-tribunal	Central London Employment Tribunal	51.51581584397409	-0.1187454258214523						Guide dogs,Loop Hearing,Interview room,Video facilities,Prayer / Quiet room,No parking	Tribunal
barrow-in-furness-magistrates-court	Barrow-in-Furness Magistrates' Court	54.11652097496552	-3.22757705451485						Guide dogs,Video facilities,Disabled access,Parking,Baby changing facility,Interview room,Loop Hearing,Refreshments	Magistrates Court
manchester-immigration-and-asylum-chamber-first-tier-tribunal	Manchester Immigration and Asylum Chamber (First-tier Tribunal)	53.48047288033258	-2.239093869083755						Loop Hearing,Interview room,Prayer / Quiet room,Refreshments,Video facilities	Tribunal
croydon-county-court-and-family-court	Croydon County Court and Family Court	51.373337535123	-0.09214917412393561						Baby changing facility,Guide dogs,Interview room,Loop Hearing,Refreshments,Disabled access	County Court,Family court
north-shields-immigration-and-asylum-tribunal	North Shields Immigration and Asylum Tribunal	54.99761841326092	-1.459514913512023						Video facilities,Interview room,Loop Hearing,Guide dogs,Parking	Tribunal
upper-tribunal-lands-chamber	Upper Tribunal (Lands Chamber)	51.515894166682073773699812591075897217	-0.109676983118595403055017811766447267						Video facilities,Guide dogs,Baby changing facility,Wireless network connection,Interview room	Tribunal
bradford-combined-court-centre	Bradford Combined Court Centre	53.79274521811999	-1.748872250515465						Wireless network connection,Refreshments,Loop Hearing,Interview room,Guide dogs,Video facilities,Baby changing facility,Prayer / Quiet room	County Court,Family court,Crown Court
basingstoke-magistrates-court	Basingstoke Magistrates' Court	51.26331471438149	-1.08317850480075						Guide dogs,Interview room,Disabled access,Video facilities,Refreshments,Loop Hearing,Video facilities	Magistrates Court
bromley-magistrates-court	Bromley Magistrates' Court	51.40762792051944	0.01108142087285594						Baby changing facility,Video facilities	Magistrates Court
birmingham-district-probate-registry	Birmingham District Probate Registry	52.48166135876607	-1.895528937739964						Guide dogs	
birmingham-youth-court	Birmingham Youth Court	52.48335097362067	-1.894965386736062						Guide dogs,Interview room,Loop Hearing,Video facilities	
birmingham-employment-tribunal	Birmingham Employment Tribunal	52.47622407821297	-1.898515825999671						Baby changing facility,Disabled access,Loop Hearing,Interview room,Parking,Guide dogs	Tribunal
blackfriars-crown-court	Blackfriars Crown Court	51.502239	-0.099934						Baby changing facility,Children facilities,Guide dogs,Interview room,Loop Hearing,Wireless network connection,Video facilities	Crown Court
west-yorkshire-enforcement-office	West Yorkshire Enforcement Office	53.74359662105593	-1.599255970794555							
surrey-fixed-penalty-office	Surrey Fixed Penalty Office	51.24529207246317	-0.5823175221210912						Guide dogs,Loop Hearing,Disabled access,Interview room	
high-peak-magistrates-court	High Peak Magistrates' Court	53.25679285511808	-1.913081160818163						Guide dogs,Loop Hearing,Refreshments,Parking,Disabled access,Interview room	Magistrates Court
croydon-employment-tribunal	Croydon Employment Tribunal	51.37968125719014	-0.1045741952570924						Loop Hearing,Interview room,Disabled access,No parking	Tribunal
newcastle-social-security-and-child-support-tribunal	Newcastle Social Security and Child Support Tribunal	54.97384571292307	-1.605948870714215						Video facilities,Loop Hearing,Interview room,Refreshments	Tribunal
blackpool-magistrates-court	Blackpool Magistrates' Court	53.8118075405438	-3.053836873269933						Baby changing facility,Guide dogs,Interview room,Loop Hearing,Parking,Refreshments,Disabled access,Video facilities	Magistrates Court
birmingham-crown-court	Birmingham Crown Court	52.48308859922231	-1.894156156499427						Interview room,Loop Hearing,Wireless network connection,Video facilities,Refreshments	Crown Court
beverley-magistrates-court-and-family-court	Beverley Magistrates' Court and Family Court	53.84052313074718	-0.4286689967539282						Guide dogs,Interview room,Loop Hearing,Parking,Video facilities,Refreshments	Family court,Magistrates Court
coventry-magistrates-court	Coventry Magistrates' Court	52.40583226251002	-1.50762739318735						Baby changing facility,Guide dogs,Interview room,Loop Hearing,Video facilities,Refreshments,Disabled access	Magistrates Court
bournemouth-crown-court	Bournemouth Crown Court	50.74795220551508	-1.81626549328006						Baby changing facility,Children facilities,Guide dogs,Interview room,Loop Hearing,Video facilities,Refreshments,Wireless network connection,Parking	Crown Court
bury-st-edmunds-crown-court	Bury St Edmunds Crown Court	52.24250246577958	0.7195633365828391						Baby changing facility,Guide dogs,Interview room,Refreshments,Loop Hearing,Video facilities	Crown Court
bury-st-edmunds-employment-tribunal	Bury St Edmunds Employment Tribunal	52.23764868776728	0.7218005528885255						Guide dogs,Interview room,Disabled access,Refreshments,Parking	Tribunal
boston-county-court-and-family-court	Boston County Court and Family Court	52.98305915224784	-0.02498226047081322						Guide dogs,Interview room,Baby changing facility,Disabled access,Disabled toilet,Parking	County Court,Family court
birmingham-magistrates-court	Birmingham Magistrates' Court	52.48373578268519	-1.89405152964037						Guide dogs,Interview room,Loop Hearing,Baby changing facility,Video facilities,Refreshments	Magistrates Court
bridlington-magistrates-court-and-family-court	Bridlington Magistrates' Court and Family Court	54.085103	-0.200095						Guide dogs,Loop Hearing,Parking,Refreshments,Interview room,Video facilities	Family court,Magistrates Court
yarlswood-immigration-and-asylum-hearing-centre	Yarlswood Immigration and Asylum Hearing Centre	52.19658709381977	-0.4898188424223279						Baby changing facility,Guide dogs,Loop Hearing,Interview room,Parking,Refreshments,Video facilities	
bournemouth-magistrates-court	Bournemouth Magistrates' Court	50.72311298638961	-1.868878252133823						Baby changing facility,Guide dogs,Interview room,Loop Hearing,Video facilities,Refreshments	Magistrates Court
bristol-magistrates-court	Bristol Magistrates' Court	51.45944932985869	-2.593335301664942						Baby changing facility,Loop Hearing,Interview room,Video facilities,Refreshments	Magistrates Court
blackburn-magistrates-court	Blackburn Magistrates' Court	53.74982981481926	-2.486135487688445						Interview room,Parking,Disabled access,Loop Hearing,Video facilities	Magistrates Court
burnley-magistrates-court	Burnley Magistrates' Court	53.78707325015339	-2.242125636241213						Baby changing facility,Guide dogs,Interview room,Loop Hearing,Video facilities,Refreshments,Disabled access,Parking	Magistrates Court
bolton-magistrates-court	Bolton Magistrates' Court	53.57870600163137	-2.43167028202129						Guide dogs,Interview room,Loop Hearing,Disabled access,Baby changing facility,Video facilities	Magistrates Court
caernarfon-crown-court	Caernarfon Crown Court	53.14043024078838	-4.264335617925146						Guide dogs,Loop Hearing,Baby changing facility,Disabled access,Refreshments,Parking,Prayer / Quiet room,Wireless network connection,Interview room,Video facilities	Crown Court
cambridge-crown-court	Cambridge Crown Court	52.20690001091643	0.1367991219911122						Baby changing facility,Guide dogs,Interview room,Wireless network connection,Parking,Refreshments,Disabled access,Video facilities,Loop Hearing	Crown Court
bristol-crown-court	Bristol Crown Court	51.45479220400507	-2.595001947806705						Baby changing facility,Guide dogs,Loop Hearing,No parking,Interview room,Wireless network connection,Video facilities,Refreshments,Prayer / Quiet room,Waiting Room	Crown Court
willesden-magistrates-court	Willesden Magistrates' Court	51.54948434653862	-0.2477012889161268						Baby changing facility,Children facilities,Guide dogs,Parking,Video facilities,Refreshments,Interview room,Loop Hearing	Magistrates Court
cardiff-crown-court	Cardiff Crown Court	51.4845564138425	-3.180256367682559						Baby changing facility,Children facilities,Disabled access,Guide dogs,Interview room,Loop Hearing,Public toilets,Refreshments,Witness care,Video facilities,Wireless network connection	Crown Court
northern-derbyshire-magistrates-court-and-family-court--2	Northern Derbyshire Magistrates' Court (Buxton)	53.25679285511808	-1.913081160818163						Guide dogs,Loop Hearing,Parking,Refreshments,Disabled access,Interview room	Magistrates Court,Family court
chester-crown-court	Chester Crown Court	53.18600545658223	-2.891826082532298						Baby changing facility,Guide dogs,Interview room,Loop Hearing,Wireless network connection,Video facilities,Refreshments,Disabled access	Crown Court
carlisle-magistrates-court	Carlisle Magistrates' Court	54.89751772005305	-2.93553374174145						Guide dogs,Interview room,Loop Hearing,Parking,Video facilities,Refreshments,Disabled access,Baby changing facility	Magistrates Court
bury-and-rochdale-magistrates-court	Bury and Rochdale Magistrates' Court	53.59303601338309	-2.305435402514594						Guide dogs,Interview room,Loop Hearing,Refreshments,Baby changing facility,Disabled access,No parking	Magistrates Court
camberwell-green-magistrates-court	Camberwell Green Magistrates' Court	51.47377699660613	-0.09654322039322955						Baby changing facility,Guide dogs,Interview room,Loop Hearing,Video facilities,Refreshments	Magistrates Court
preston-combined-court-centre	Preston Combined Court Centre	53.76239428021956	-2.698982941537473						Children facilities,Guide dogs,Baby changing facility,Interview room,Loop Hearing,Wireless network connection,Refreshments,Disabled access,Video facilities	Crown Court
sutton-social-security-and-child-support-tribunal	Sutton Social Security and Child Support Tribunal	51.35993203267159	-0.1932381975526314						Baby changing facility,Loop Hearing,Video facilities,No parking	Tribunal
central-criminal-court	Central Criminal Court	51.51549205198573	-0.1019966744505173						Loop Hearing,Video facilities,Interview room,Wireless network connection,Refreshments,Disabled access	
upper-tribunal-immigration-and-asylum-chamber	Upper Tribunal Immigration and Asylum Chamber	51.5161650341844	-0.1108182958827761						Baby changing facility,Loop Hearing,Interview room,Prayer / Quiet room,No parking,Refreshments,Video facilities,Guide dogs	Tribunal
chelmsford-crown-court	Chelmsford Crown Court	51.73721305791375	0.4759906569327328						Loop Hearing,Disabled access,Guide dogs,Refreshments,Video facilities,Wireless network connection	Crown Court
chester-magistrates-court	Chester Magistrates' Court	53.18763788588225	-2.893506207575379						Guide dogs,Interview room,Loop Hearing,Video facilities,Refreshments,Disabled access	Magistrates Court
dudley-magistrates-court	Dudley Magistrates' Court	52.50973201931085	-2.087874368312748						Baby changing facility,Guide dogs,Interview room,Loop Hearing,Video facilities,Refreshments,Disabled access	Magistrates Court
kendal-magistrates-court	Kendal Magistrates' Court	54.3346957498346	-2.747967497960563						Baby changing facility,Loop Hearing,Guide dogs,Parking,Refreshments,Disabled access,Interview room	Magistrates Court
derby-combined-court-centre	Derby Combined Court Centre	52.92245050115016	-1.473009236399936						Baby changing facility,Guide dogs,Interview room,Loop Hearing,Wireless network connection,Refreshments,Disabled access,No parking	Crown Court
devon-cornwall-fixed-penalty-office	Devon & Cornwall Fixed Penalty Office	50.36558388790405	-4.105463543393149						Loop Hearing,Disabled access	
inner-london-family-proceedings-court	Inner London Family Proceedings Court	51.51761090177792	-0.1388214502596158						Baby changing facility,Children facilities,Guide dogs,Interview room,Loop Hearing,Refreshments,Disabled access,Video facilities	Family court
derby-magistrates-court	Derby Magistrates' Court	52.92462144903158	-1.479914339054746						Baby changing facility,Guide dogs,Interview room,Loop Hearing,Video facilities,Disabled access,Refreshments	Magistrates Court
kingston-upon-hull-magistrates-court-and-family-court	Kingston-upon-Hull Magistrates' Court and Family Court	53.744072	-0.326561						Baby changing facility,Guide dogs,Interview room,Loop Hearing,Video facilities,Refreshments,Disabled access,Parking	Family court,Magistrates Court
dover-magistrates-court	Dover Magistrates' Court	51.12790773839598	1.313685406528092						Baby changing facility,Guide dogs,Loop Hearing,Refreshments,Disabled access	Magistrates Court,Family court
guildford-crown-court	Guildford Crown Court	51.238767084209	-0.5789514558341263						Guide dogs,Loop Hearing,Wireless network connection,Refreshments,Disabled access,Video facilities	Crown Court
gloucester-crown-court	Gloucester Crown Court	51.86645377015608	-2.248600403071705						Guide dogs,Loop Hearing,Interview room,Wireless network connection,Parking,Video facilities,Refreshments,Disabled access	Crown Court
harrow-crown-court	Harrow Crown Court	51.59382382132144	-0.3398093254651581						Baby changing facility,Loop Hearing,Wireless network connection,Parking,Refreshments,Guide dogs,Interview room,Disabled access,Video facilities	Crown Court
hereford-magistrates-court	Hereford Magistrates' Court	52.05708079199627	-2.710989875732168						Baby changing facility,Guide dogs,Interview room,Loop Hearing,Video facilities,Refreshments,Disabled access	Magistrates Court
hereford-crown-court	Hereford Crown Court	52.05619	-2.712536						Loop Hearing,Disabled access,Guide dogs,Interview room	Crown Court
ipswich-district-probate-registry	Ipswich District Probate Registry	52.05779497745515	1.151177327990838						Guide dogs,Disabled access	
isleworth-crown-court	Isleworth Crown Court	51.47921655375414	-0.3403301314615689						Baby changing facility,Children facilities,Interview room,Loop Hearing,Wireless network connection,Parking,Refreshments,Disabled access,Video facilities	Crown Court
leicester-magistrates-court	Leicester Magistrates' Court	52.63224625245266	-1.134345846011187						Video facilities	Magistrates Court
kingston-upon-thames-crown-court	Kingston-upon-Thames Crown Court	51.40588218897574	-0.3044248138131593						Baby changing facility,Guide dogs,Interview room,Loop Hearing,Wireless network connection,Video facilities,Refreshments,Disabled access	Crown Court
hull-and-holderness-magistrates-court-and-family-court	Hull and Holderness Magistrates' Court and Family Court	53.740995	-0.332702						Interview room,Guide dogs,Baby changing facility,Disabled access,Video facilities,Loop Hearing,Refreshments	Family court,Magistrates Court
mold-magistrates-court-and-family-court	Mold Magistrates' Court and Family Court	53.17700279051488	-3.137170826790298						Baby changing facility,Guide dogs,Interview room,Loop Hearing,Refreshments,Disabled access,Wireless network connection	Magistrates Court
hendon-magistrates-court	Hendon Magistrates' Court	51.58187096365993	-0.2456474632392328						Baby changing facility,Guide dogs,Interview room,Loop Hearing	Magistrates Court
king-s-lynn-crown-court	King's Lynn Crown Court	52.75172160271178	0.3940042587247044						Guide dogs,Interview room,Loop Hearing,Disabled access	Crown Court
ipswich-crown-court	Ipswich Crown Court	52.05365400308374	1.143211110445379						Guide dogs,Interview room,Loop Hearing,Wireless network connection,Video facilities,Refreshments,Disabled access,Baby changing facility,Video facilities	Crown Court
kidderminster-magistrates-court	Kidderminster Magistrates' Court	52.384179201788	-2.240893319422101						Baby changing facility,Interview room,Loop Hearing,Parking,Video facilities,Refreshments,Disabled access,Guide dogs	Magistrates Court
merthyr-tydfil-combined-court-centre	Merthyr Tydfil Combined Court Centre	51.74777749758063	-3.381026178550222						Baby changing facility,Interview room,Loop Hearing,Parking,Refreshments,Disabled access,Guide dogs,Video facilities,Prayer / Quiet room	Crown Court
leicester-crown-court	Leicester Crown Court	52.63005253798484	-1.127105356871472						Interview room,Loop Hearing,Baby changing facility,Children facilities,Wireless network connection,Video facilities,Guide dogs,Refreshments,Disabled access	Crown Court
lincoln-crown-court	Lincoln Crown Court	53.23458990462412	-0.5405761144906363						Guide dogs,Interview room,Loop Hearing,Refreshments,Wireless network connection,Video facilities,Disabled access	Crown Court
lincoln-magistrates-court	Lincoln Magistrates' Court	53.22460215586209	-0.5420241935584984						Baby changing facility,Guide dogs,Disabled access,Interview room,Video facilities,Refreshments	Magistrates Court
llandudno-magistrates-court-and-family-court	Llandudno Magistrates' Court and Family Court	53.32020886254219	-3.823278029784428						Guide dogs,Interview room,Loop Hearing,Video facilities,Disabled access,Prayer / Quiet room,Parking,Baby changing facility,Refreshments	Magistrates Court
lincoln-county-court-and-family-court	Lincoln County Court and Family Court	53.22446609322916	-0.5411899596916334						Baby changing facility,Children facilities,Guide dogs,Loop Hearing,Refreshments,Disabled access,Interview room	Family court,County Court
southport-magistrates-court	Southport Magistrates' Court	53.65241256333132	-2.997385233796136						Baby changing facility,Guide dogs,Interview room,Loop Hearing,Disabled access	Magistrates Court
leamington-spa-magistrates-court	Leamington Spa Magistrates' Court	52.28883110129277	-1.533936266242453						Baby changing facility,Guide dogs,Interview room,Loop Hearing,Video facilities,Refreshments,Disabled access,Wireless network connection	Magistrates Court
barkingside-magistrates-court	Barkingside  Magistrates' Court	51.58771250105647	0.08141674810366231						Baby changing facility,Guide dogs,Interview room,Loop Hearing,Parking,Video facilities,Refreshments,Disabled access	Magistrates Court
mold-crown-court	Mold Crown Court	53.17700279051488	-3.137170826790298						Baby changing facility,Guide dogs,Interview room,Loop Hearing,Wireless network connection,Refreshments,Disabled access,Video facilities	Crown Court
luton-crown-court	Luton Crown Court	51.87796790462835	-0.4139457828183865						Baby changing facility,Guide dogs,Interview room,Loop Hearing,Wireless network connection,Video facilities,Refreshments,Disabled access	Crown Court
walsall-county-and-family-court	Walsall County and Family Court	52.58476421718164	-1.977817968071514						Baby changing facility,Children facilities,Guide dogs,Interview room,Loop Hearing,Refreshments,Disabled access	Family court,County Court
nottingham-crown-court	Nottingham Crown Court	52.94854105243607	-1.146650301665879						Baby changing facility,Guide dogs,Interview room,Loop Hearing,Wireless network connection,Video facilities,Disabled access,Refreshments	Crown Court
manchester-crown-court-crown-square	Manchester Crown Court (Crown Square)	53.48012232694553	-2.252201156281677						Baby changing facility,Guide dogs,Loop Hearing,Wireless network connection,Refreshments,Disabled access,Interview room,Video facilities	Crown Court
redditch-magistrates-court	Redditch Magistrates' Court	52.30630196057233	-1.93694845648063						Baby changing facility,Interview room,Loop Hearing,Video facilities,Refreshments,Guide dogs,Disabled access,No parking,Baby changing facility	Magistrates Court
manchester-and-salford-magistrates-court	Manchester and Salford Magistrates' Court	53.48012232694553	-2.252201156281677						Refreshments,Disabled access,Baby changing facility,Guide dogs,Interview room,Loop Hearing,Video facilities,Wireless network connection	Magistrates Court
manchester-crown-court-minshull-st	Manchester Crown Court (Minshull St)	53.47867447582347	-2.234925090404637						Loop Hearing,Video facilities,Baby changing facility,Refreshments	Crown Court
northampton-magistrates-court-office	Northampton Magistrates' Court Office	52.27755842625879	-0.873713796762021							Magistrates Court
newcastle-district-probate-registry	Newcastle District Probate Registry	54.96962552584358	-1.62115770629835						Guide dogs,Disabled access	
north-shields-county-court-and-family-court	North Shields County Court and Family Court	54.99761841326092	-1.459514913512023						Interview room,Loop Hearing,Parking,Refreshments,Disabled access,Video facilities	Family court,County Court
nottingham-county-court-and-family-court	Nottingham County Court and Family Court	52.94854105243607	-1.146650301665879						Baby changing facility,Guide dogs,Interview room,Loop Hearing,Video facilities,Refreshments,Disabled access	County Court,Family court
south-worcestershire-magistrates-court	South Worcestershire Magistrates' Court	52.19692663320755	-2.224326500367849							Magistrates Court
northallerton-magistrates-court-and-family-court	Northallerton Magistrates' Court and Family Court	54.33348577600144	-1.435884883068036						Baby changing facility,Guide dogs,Interview room,Video facilities,Refreshments,Disabled access,Loop Hearing,Disabled toilet,Prayer / Quiet room,public pay phone,Public toilets,Waiting Room	Family court,Magistrates Court
shrewsbury-crown-court	Shrewsbury Crown Court	52.70461857880404	-2.731136155006492						Guide dogs,Interview room,Loop Hearing,Parking,Refreshments,Disabled access	Crown Court
peterborough-magistrates-court	Peterborough Magistrates' Court	52.56975274912651	-0.2415306787918396						Guide dogs,Interview room,Loop Hearing,Video facilities,Disabled access,Refreshments	Magistrates Court
st-helens-magistrates-court	St Helens Magistrates' Court	53.45494532549212	-2.736480561068445						Guide dogs,Interview room,Loop Hearing,Video facilities,Disabled access,Baby changing facility,Refreshments	Magistrates Court
pontypridd-magistrates-court-and-family-court	Pontypridd Magistrates' Court and Family Court	51.59837769352312	-3.34079718441666						Children facilities,Disabled access,Guide dogs,Interview room,Loop Hearing,Prayer / Quiet room,public pay phone,Refreshments,Wireless network connection,Witness care	Magistrates Court
oxford-district-probate-registry	Oxford District Probate Registry	51.75201800656414	-1.261122979073233						Guide dogs,Disabled access	
snaresbrook-crown-court	Snaresbrook Crown Court	51.58101790810205	0.01728429562993307						Loop Hearing,Guide dogs,Interview room,Prayer / Quiet room,Wireless network connection,Parking,Video facilities,Refreshments,Disabled access,Children facilities,Baby changing facility	Crown Court
nottingham-justice-centre	Nottingham Justice Centre	52.94728284524959	-1.149354176776938						Baby changing facility,Guide dogs,Interview room,Loop Hearing,Video facilities,Refreshments,Disabled access	Magistrates Court
plymouth-magistrates-court	Plymouth Magistrates' Court	50.3692869786784	-4.139574502892319						Disabled access,Loop Hearing,Parking,Disabled access,Disabled toilet,Baby changing facility,Public toilets,Video facilities,Disabled access,Guide dogs,Guide dogs,First Aid,Refreshments,Witness care	Magistrates Court
crewe-south-cheshire-magistrates-court	Crewe (South Cheshire) Magistrates' Court	53.09766648683986	-2.438724747553797						Parking,Guide dogs,Interview room,Loop Hearing,Refreshments,Disabled access,Video facilities	Magistrates Court
oldham-magistrates-court	Oldham Magistrates' Court	53.54173894287416	-2.116999288008246						Guide dogs,Interview room,Refreshments,Disabled access,Loop Hearing,Video facilities	Magistrates Court
nuneaton-magistrates-court	Nuneaton Magistrates' Court	52.52295515280645	-1.462428146859625						Baby changing facility,Guide dogs,Interview room,Loop Hearing,Parking,Video facilities,Refreshments,Disabled access	Magistrates Court
chesterfield-county-court-and-family-court	Chesterfield Magistrates Court, County Court and Family Court	53.236959685371324724201258504763245583	-1.423743703744716704306938481749966741						Baby changing facility,Guide dogs,Interview room,Loop Hearing,Refreshments,Disabled access	County Court,Family court
sefton-magistrates-court	Sefton Magistrates' Court	53.44892264968894	-2.989101915163368						Guide dogs,Loop Hearing,Video facilities,Disabled access,Baby changing facility,Interview room,Parking,Refreshments,Disabled access	Magistrates Court
poole-magistrates-court	Poole Magistrates' Court	50.7221637517429	-1.960834585325274						Baby changing facility,Guide dogs,Loop Hearing,Parking,Video facilities,Refreshments,Disabled access,Interview room	Magistrates Court
portsmouth-magistrates-court	Portsmouth Magistrates' Court	50.79595087404672	-1.090038086103245						Baby changing facility,Guide dogs,Interview room,Loop Hearing,Video facilities,Refreshments,Disabled access	Magistrates Court
staffs-central-finance-and-enforcement-unit	Staffs Central Finance and Enforcement Unit	52.76181650696547	-1.932383151498231							
southend-crown-court	Southend Crown Court	51.54372842180033	0.7097287040452791						Guide dogs,Interview room,Loop Hearing,Disabled access,Refreshments,No parking,Video facilities	Crown Court
st-albans-crown-court	St Albans Crown Court	51.75161888605037	-0.3355219865033228						Loop Hearing,Guide dogs,Interview room,Wireless network connection,Video facilities,Refreshments,Disabled access	Crown Court
leicester-probate-sub-registry	Leicester Probate Sub Registry	52.63005352315573	-1.12710509961754						Guide dogs,Disabled access	
colchester-magistrates-court	Colchester Magistrates' Court	51.88647858426466	0.9041391348749359						Disabled access,Baby changing facility,Refreshments,Video facilities	Magistrates Court
southwark-crown-court	Southwark Crown Court	51.50571835536135	-0.08217155322698085						Guide dogs,Wireless network connection,Refreshments,Prayer / Quiet room,Video facilities,Interview room,Disabled access	Crown Court
swansea-crown-court	Swansea Crown Court	51.61435406721888	-3.957234541318848						Baby changing facility,Disabled access,Interview room,Waiting Room,Loop Hearing,Prayer / Quiet room,Refreshments,Video facilities,Witness care	Crown Court
taunton-crown-court	Taunton Crown Court	51.01277807674551	-3.107695332686885						Baby changing facility,Guide dogs,Interview room,Refreshments,Disabled access,Loop Hearing	Crown Court
yeovil-magistrates-court	Yeovil Magistrates' Court	50.93963226663104	-2.633773112772371						Loop Hearing,Baby changing facility,Guide dogs,Refreshments,Parking,Interview room,Disabled access	Magistrates Court
vale-of-glamorgan-magistrates-court	Vale of Glamorgan Magistrates' Court	51.40436004247193	-3.269483221205888						Guide dogs,Loop Hearing,Interview room,Parking,Video facilities,Refreshments,Disabled access	Magistrates Court
swansea-magistrates-court-and-family-court	Swansea Magistrates' Court and Family Court	51.62187934039571	-3.945379400351416						Baby changing facility,Guide dogs,Interview room,Loop Hearing,Refreshments,Disabled access,Waiting Room,Video facilities	Magistrates Court
hammersmith-county-court	Hammersmith County Court	51.49076088942117	-0.2194737462365509						Baby changing facility,Guide dogs,Interview room,Disabled access	County Court
uxbridge-magistrates-court	Uxbridge Magistrates' Court	51.54966083344274	-0.4816670977359386						Video facilities	Magistrates Court
taunton-magistrates-court	Taunton Magistrates' Court	51.01429651502695	-3.109669993699765						Baby changing facility,Guide dogs,Loop Hearing,Interview room,Video facilities,Disabled access	Magistrates Court
sandwell-magistrates-court	Sandwell Magistrates' Court	52.50222172482291	-2.011358525414919						Baby changing facility,Interview room,Loop Hearing,Parking,Refreshments,Disabled access,Guide dogs,Video facilities	Magistrates Court
telford-magistrates-court	Telford Magistrates' Court	52.67774116189877	-2.451497648536399						Baby changing facility,Guide dogs,Interview room,Loop Hearing,Parking,Video facilities,Refreshments,Disabled access	Magistrates Court
huntingdon-law-courts-employment-tribunal-centre	Huntingdon Law Courts & Employment Tribunal Centre	52.33032661614514	-0.1854833473986348						Baby changing facility,Children facilities,Refreshments,Disabled access,Interview room,Guide dogs,Loop Hearing,Video facilities	Tribunal,Magistrates Court,Crown Court
wirral-magistrates-court	Wirral Magistrates' Court	53.39305793432016	-3.013580921793925						Video facilities,Loop Hearing,Refreshments,Baby changing facility	Magistrates Court
walsall-magistrates-court	Walsall Magistrates' Court	52.5890904724748	-1.985638941377113						Baby changing facility,Guide dogs,Interview room,Loop Hearing,Video facilities,Refreshments,Disabled access	Magistrates Court
west-somerset-magistrates-court	West Somerset Magistrates' Court	51.01429651502695	-3.109669993699765							Magistrates Court
west-hampshire-magistrates-court	West Hampshire Magistrates' Court	50.91431327050081	-1.403979080005235						Baby changing facility,Guide dogs,Interview room,Loop Hearing,Video facilities,Refreshments,Disabled access	Magistrates Court
trafford-magistrates-court	Trafford Magistrates' Court	53.42631111886911	-2.325276670211602						Loop Hearing,Wireless network connection,Guide dogs,Interview room,Refreshments,Disabled access,Video facilities	Magistrates Court
winchester-district-probate-registry	Winchester District Probate Registry	51.0680927439994	-1.318502258055191						Disabled access,Guide dogs	
woolwich-crown-court	Woolwich Crown Court	51.49649688151636	0.09013840010264906						Interview room,Wireless network connection,Parking,Refreshments,Disabled access,Guide dogs,Loop Hearing,Video facilities	Crown Court
family-division	Family Division	51.51414379268482	-0.1137411619116455						Wireless network connection	
admiralty-and-commercial-court	Admiralty and Commercial Court	51.51589484564764	-0.1096764407820697						Wireless network connection,Interview room,Disabled access,Baby changing facility,Guide dogs,Loop Hearing,Video facilities	
technology-construction-court	Technology & Construction Court	51.51589484564764	-0.1096764407820697						Wireless network connection,Interview room,Baby changing facility,Loop Hearing,Guide dogs,Video facilities	
administrative-court	Administrative Court	51.51414379268482	-0.1137411619116455						Wireless network connection	
claim-production-centre-cpc	Claim Production Centre (CPC)	52.23730267649494	-0.8999651365094131						Guide dogs,Parking,Disabled access	
wood-green-crown-court	Wood Green Crown Court	51.59884071930603	-0.1051655860704106						Baby changing facility,Guide dogs,Interview room,Loop Hearing,Wireless network connection,Video facilities,Disabled access,Children facilities,Refreshments	Crown Court
swansea-civil-and-family-justice-centre	Swansea Civil and Family Justice Centre	51.62025760045066	-3.93800082334762						Baby changing facility,Children facilities,Guide dogs,Loop Hearing,Interview room,Parking,Video facilities,Refreshments,Disabled access	
llanelli-magistrates-court-and-family-court	Llanelli Magistrates' Court and Family Court	51.68211361662362	-4.163128504656471						Loop Hearing,Interview room,Guide dogs,Video facilities,Disabled access,Refreshments	Magistrates Court
wolverhampton-magistrates-court	Wolverhampton Magistrates' Court	52.58616944985786	-2.130417376852474						Guide dogs,Interview room,Loop Hearing,Parking,Video facilities,Refreshments,Disabled access,Baby changing facility	Magistrates Court
skipton-county-court-and-family-court	Skipton County Court and Family Court	53.96132208881506	-2.01319316356382						Baby changing facility,Guide dogs,Interview room,Loop Hearing,Refreshments,Disabled access,Disabled toilet	Family court,County Court
wigan-and-leigh-magistrates-court	Wigan and Leigh Magistrates' Court	53.54308457814919	-2.626685775102252						Baby changing facility,Guide dogs,Loop Hearing,Wireless network connection,Refreshments,Disabled access,Interview room,Video facilities	Magistrates Court
truro-crown-court	Truro Crown Court	50.26554787935058	-5.056641850544778						Guide dogs,Loop Hearing,Disabled access,Baby changing facility,Interview room,Video facilities,Refreshments	Crown Court
durham-county-court-and-family-court	Durham County Court and Family Court	54.77377020614679	-1.565845135896532						Baby changing facility,Guide dogs,Interview room,Refreshments,Disabled access,Loop Hearing,Video facilities	Family court,County Court
senior-courts-costs-office	Senior Courts Costs Office	51.51414379268482	-0.1137411619116455						Wireless network connection,Guide dogs,Refreshments,Disabled access,Loop Hearing,Prayer / Quiet room	
chancery-division	Chancery Division	51.51589484564764	-0.1096764407820697						Video facilities,Wireless network connection,Interview room,Baby changing facility,Loop Hearing,Guide dogs	
court-of-appeal-civil-division	Court of Appeal Civil Division	51.51414379268482	-0.1137411619116455						Wireless network connection	
haverfordwest-magistrates-court-and-family-court	Haverfordwest Magistrates' Court and Family Court	51.8010003094506	-4.980594690718541						Guide dogs,Loop Hearing,Interview room,Parking,Video facilities,Refreshments,Disabled access	Magistrates Court
manchester-district-probate-registry	Manchester District Probate Registry	53.48090332575237	-2.252672912883409						Guide dogs,Disabled access	
hampshire-the-isle-of-wight-fixed-penalty-office	Hampshire & the Isle of Wight Fixed Penalty Office	51.06755363020878	-1.297302390194685							
london-mercantile-court	London Mercantile Court	51.51589484564764	-0.1096764407820697						Wireless network connection,Interview room,Baby changing facility,Loop Hearing,Guide dogs,Video facilities	
surrey-fines-and-enforcement-unit	Surrey Fines and Enforcement Unit	51.24529207246317	-0.5823175221210912						Guide dogs,Loop Hearing,Disabled access,Interview room	
north-yorkshire-enforcement-office	North Yorkshire Enforcement Office									
avon-and-somerset-central-accounts-department	Avon and Somerset Central Accounts Department	51.34387287825225	-2.957008545504219							
court-of-appeal-criminal-division	Court of Appeal Criminal Division	51.51414379268482	-0.1137411619116455						Wireless network connection	
money-claim-online-mcol	Money Claim Online (MCOL)	52.23730179858217	-0.8999654576044167						Guide dogs,Parking,Disabled access	
bankruptcy-court-central-london	Bankruptcy Court (Central London)	51.514143114175396931386785581707954407	-0.113741703061940910290950057515146909							
queen-s-bench-division	Queen's Bench Division	51.51414379268482	-0.1137411619116455						Wireless network connection	
worcester-magistrates-court	Worcester Magistrates' Court	52.19692663320755	-2.224326500367849						Baby changing facility,Guide dogs,Interview room,Loop Hearing,Video facilities,Refreshments,Disabled access	Magistrates Court
centralised-attachment-of-earnings-payments-caps	Centralised Attachment of Earnings Payments (CAPS)	52.23730179858217	-0.8999654576044167						Guide dogs,Parking,Disabled access	
banbury-fixed-penalty-office	Banbury Fixed Penalty Office	52.05843074288249	-1.341316714558609							
sussex-fines-enforcement-unit	Sussex Fines & Enforcement Unit	50.82633412044432	-0.1408178801553836							
bristol-district-probate-registry	Bristol District Probate Registry	51.45239654937663	-2.590567201633737						Prayer / Quiet room,Refreshments,Parking,Baby changing facility,Disabled access,Loop Hearing,Guide dogs,Wireless network connection	
court-of-protection	Court of Protection	51.518436	-0.114516							
national-taxing-team-birmingham-office	National Taxing Team Birmingham Office	52.4824166305608	-1.895659677415415							
stourbridge-county-court	Stourbridge County Court	52.4540213035203	-2.14296073675072						Baby changing facility,Guide dogs,Interview room,Refreshments,Disabled access	County Court
london-centralised-legal-aid-office	London Centralised Legal Aid Office	51.581867117497	0.1857399595076986							
westminster-magistrates-court	Westminster Magistrates' Court	51.52067165378032	-0.1641817645049896						Baby changing facility,Guide dogs,Interview room,Video facilities,Disabled access,No parking,Refreshments,Loop Hearing	Magistrates Court
central-family-court	Central Family Court	51.51843600382902	-0.1145156479194628						Disabled access,Baby changing facility,Guide dogs,Loop Hearing,Interview room,Children facilities	Family court
national-taxing-team-manchester-office	National Taxing Team Manchester Office	53.48090332575237	-2.252672912883409							
east-london-family-proceedings-court	East London Family Proceedings Court	51.53916042899769	0.0002911951288142492							
darlington-county-court-and-family-court	Darlington County Court and Family Court	54.52373123511079	-1.558318775533204						Baby changing facility,Guide dogs,Interview room,Disabled access,Loop Hearing	Family court,County Court
south-east-region-reciprocal-enforcement-unit	South East Region Reciprocal Enforcement Unit	52.24250333714839	0.719564129610343							
bolton-crown-court	Bolton Crown Court	53.57820433663913	-2.433688977914306						Baby changing facility,Children facilities,Guide dogs,Interview room,Loop Hearing,Wireless network connection,Refreshments,Video facilities	Crown Court
brighton-county-court	Brighton County Court	50.82301575598645	-0.135228265919874						Guide dogs,Interview room,Baby changing facility,Loop Hearing,Children facilities,Video facilities	County Court
liverpool-district-probate-registry	Liverpool District Probate Registry	53.40417026841992	-2.989778078189362						Guide dogs,Disabled access	
coventry-combined-court-centre	Coventry Combined Court Centre	52.40558365305145	-1.506439638443513						Baby changing facility,Children facilities,Guide dogs,Interview room,Loop Hearing,Wireless network connection,Refreshments,Disabled access	Crown Court
wigan-county-court-and-family-court	Wigan County Court and Family Court	53.54308334450705	-2.626685586932861						Baby changing facility,Guide dogs,Interview room,Loop Hearing,Refreshments,Disabled access,Video facilities	Family court,County Court
blackwood-civil-and-family-court	Blackwood Civil and Family Court	51.66653054944502	-3.192933699322247						Guide dogs,Loop Hearing,Interview room,Parking,Video facilities,Disabled access,Prayer / Quiet room,Refreshments	
harrogate-county-court-and-family-court	Harrogate County Court and Family Court	53.99032493312922	-1.539637327095139						Baby changing facility,Interview room,Disabled access,Loop Hearing,Disabled toilet,First Aid,Guide dogs,Waiting Room,Refreshments,Public toilets	Family court,County Court
stafford-combined-court-centre	Stafford Combined Court Centre	52.80542928949429	-2.119429229776115						Baby changing facility,Guide dogs,Interview room,Loop Hearing,Wireless network connection,Disabled access,Video facilities	Crown Court
bournemouth-and-poole-county-court-and-family-court	Bournemouth and Poole County Court and Family Court	50.74795173073077	-1.816265545447414						Baby changing facility,Children facilities,Guide dogs,Interview room,Loop Hearing,Parking,Video facilities,Refreshments	Family court,County Court
newcastle-upon-tyne-combined-court-centre	Newcastle upon Tyne Combined Court Centre	54.96987498111234	-1.603550896386792						Baby changing facility,Children facilities,Guide dogs,Interview room,Loop Hearing,Wireless network connection,Video facilities,Refreshments,Disabled access	Family court,Crown Court
stoke-on-trent-combined-court	Stoke-on-Trent Combined Court	53.02207231001854	-2.175754053789599						Baby changing facility,Guide dogs,Interview room,Loop Hearing,Wireless network connection,Video facilities,Refreshments,Disabled access,Parking	Crown Court
pontypridd-county-court-and-family-court	Pontypridd County Court and Family Court	51.59984885006039	-3.344248040223552						Guide dogs,Loop Hearing,Interview room,Refreshments,Disabled access,Video facilities	County Court
wakefield-pontefract-magistrates-court	Wakefield & Pontefract Magistrates Court	53.6839819286625	-1.502269186664007						Baby changing facility,Interview room,Loop Hearing,Video facilities,Refreshments,Disabled access,Guide dogs,Disabled toilet,First Aid,Prayer / Quiet room,Public toilets,Witness care	Magistrates Court
banbury-county-court	Banbury County Court	52.06393067136082	-1.340885747340279						Baby changing facility,Guide dogs,Interview room,Loop Hearing,Refreshments,Disabled access	County Court
warwick-combined-court	Warwick Combined Court	52.28883110129277	-1.533936266242453						Baby changing facility,Guide dogs,Interview room,Loop Hearing,Video facilities,Refreshments,Disabled access,Wireless network connection	Crown Court,County Court
sunderland-county-court-and-family-court	Sunderland County Court and Family Court	54.90487886148372	-1.380346272152278						Baby changing facility,Children facilities,Interview room,Loop Hearing,Video facilities,Guide dogs	County Court,Family court
worcester-combined-court	Worcester Combined Court	52.19694923858398	-2.221883334570114						Baby changing facility,Guide dogs,Loop Hearing,Wireless network connection,Refreshments,Disabled access,Interview room	Crown Court
rolls-building	Rolls Building	51.51589484564764	-0.1096764407820697						Wireless network connection,Baby changing facility,Loop Hearing,Guide dogs,Video facilities,Interview room	
carmarthen-county-court-and-family-court	Carmarthen County Court and Family Court	51.85497770950421	-4.317893998529196						Baby changing facility,Guide dogs,Interview room,Loop Hearing,Disabled access,Video facilities,Prayer / Quiet room,Disabled toilet,Public toilets,First Aid,Waiting Room	County Court
royal-courts-of-justice	Royal Courts of Justice	51.5141431141754	-0.1137417030619409						Guide dogs,Loop Hearing,Interview room,Disabled access,Baby changing facility,Refreshments,Video facilities	
patents-court	Patents Court	51.51589484564764	-0.1096764407820697						Wireless network connection	
avon-somerset-fixed-penalty-office	Avon & Somerset Fixed Penalty Office	51.02345117148301	-3.109703548008371							
welshpool-magistrates-court-and-family-court	Welshpool Magistrates' Court and Family Court	52.65895976208425	-3.146222531470546						Guide dogs,Disabled access,Baby changing facility,Refreshments,Loop Hearing,Parking,Prayer / Quiet room,Video facilities,Interview room	Magistrates Court
torquay-and-newton-abbot-county-court-and-family-court	Torquay and Newton Abbot County Court and Family Court	50.48676764508546	-3.551807218834174						Baby changing facility,Interview room,Loop Hearing,Parking,Refreshments,Disabled access	Family court,Magistrates Court,County Court
york-county-court-and-family-court	York County Court and Family Court	53.95468144139429	-1.076368278438409						Interview room,Disabled access,Video facilities,Loop Hearing,Public toilets,Guide dogs,Disabled toilet,Baby changing facility,Refreshments	Family court,County Court
caernarfon-magistrates-court-and-family-court	Caernarfon Magistrates' Court and Family Court	53.14043024078838	-4.264335617925146						Guide dogs,Interview room,Loop Hearing,Refreshments,Baby changing facility,Disabled access,Prayer / Quiet room,Wireless network connection,Parking,Video facilities	Magistrates Court
traffic-enforcement-centre-tec	Traffic Enforcement Centre (TEC)	52.23730179858217	-0.8999654576044167						Guide dogs,Parking,Disabled access	
brighton-district-probate-registry	Brighton District Probate Registry	50.82301624689145	-0.1352277390938858						Guide dogs	
carmarthen-probate-sub-registry	Carmarthen Probate Sub-Registry	51.8549784782771	-4.317894667775999						Guide dogs	
south-shields-county-court-and-family-court	South Shields County Court and Family Court	54.99302385114902	-1.439086022022767						Loop Hearing,Parking,Refreshments,Disabled access,Interview room,Guide dogs,Baby changing facility,Video facilities	County Court,Family court
lavender-hill-magistrates-court-formerly-south-western-magistrates-court	Lavender Hill Magistrates' Court (formerly South Western Magistrates' Court)	51.46461234716006	-0.1624589920716265						Baby changing facility,Guide dogs,Interview room,Loop Hearing,Video facilities,Disabled access	Magistrates Court
teesside-combined-court-centre	Teesside Combined Court Centre	54.57520891853945	-1.231232180481667						Baby changing facility,Children facilities,Interview room,Loop Hearing,Wireless network connection,Video facilities,Refreshments,Disabled access,Guide dogs,Parking	Crown Court
basildon-combined-court	Basildon Combined Court	51.57257094213568	0.4548071888906972						Guide dogs,Interview room,Loop Hearing,Wireless network connection,Video facilities,Refreshments,Disabled access	Crown Court,County Court
taunton-county-court-and-family-court	Taunton County Court and Family Court	51.01277807674551	-3.107695332686885						Baby changing facility,Guide dogs,Interview room,Loop Hearing,Refreshments,Disabled access	County Court,Crown Court,Family court
leeds-combined-court-centre	Leeds Combined Court Centre	53.80043988015357	-1.551754185296844						Baby changing facility,Guide dogs,Interview room,Loop Hearing,Wireless network connection,Refreshments,Disabled access,Video facilities,Disabled toilet,First Aid,Prayer / Quiet room,public pay phone,Public toilets	Crown Court,Family court,County Court
aberystwyth-justice-centre	Aberystwyth Justice Centre	52.40906995738605	-4.087099827073842						Interview room,Video facilities,Refreshments,Disabled access,Video facilities	
mansfield-magistrates-court-county-court-and-family-court	Mansfield Magistrates' Court, County Court and Family Court	53.14863829636502	-1.205728640405643						Baby changing facility,Children facilities,Guide dogs,Interview room,Loop Hearing,Parking,Video facilities,Refreshments,Disabled access	County Court,Magistrates Court,Family court
wales-employment-tribunal	Wales Employment Tribunal	51.48532678070784	-3.175177879806764						Interview room,Loop Hearing,Disabled access,Disabled toilet,Guide dogs,Public toilets,Refreshments,Waiting Room	Tribunal
manchester-employment-tribunal	Manchester Employment Tribunal	53.48337627228552	-2.247850386520655						Loop Hearing,Interview room,No parking,Refreshments,Video facilities	Tribunal
dudley-county-court-and-family-court	Dudley County Court and Family Court	52.45402036520227	-2.142960695236732						Refreshments,Baby changing facility,Guide dogs,Interview room,Disabled access	Family court,County Court
wrexham-county-court-and-family-court	Wrexham County Court  and Family Court	53.04845954089615	-2.98952792283808						Video facilities	County Court,Family court
north-liverpool-community-justice-centre	North Liverpool Community Justice Centre	53.44892144239314	-2.989101618651651						Baby changing facility,Loop Hearing,Interview room,Refreshments,Disabled access,Parking,Video facilities	Magistrates Court
weymouth-and-dorchester-combined-court-centre	Weymouth and Dorchester Combined Court Centre	50.60840159258562	-2.460105033875808						Children facilities,Guide dogs,Interview room,Loop Hearing,Parking,Refreshments,Disabled access,Baby changing facility	County Court,Family court,Crown Court
scarborough-justice-centre	Scarborough Justice Centre	54.28146434507936	-0.4079118236799389						Interview room,Baby changing facility,Loop Hearing,Refreshments,Disabled access,Guide dogs,Disabled toilet,Video facilities	Family court,County Court,Magistrates Court
bodmin-magistrates-court	Bodmin Magistrates' Court	50.46952713166196	-4.708864729833457						Baby changing facility,Guide dogs,Interview room,Parking,Loop Hearing,Refreshments,Video facilities	Magistrates Court
north-avon-magistrates-court	North Avon Magistrates' Court	51.53972196177897	-2.416840103613838						Baby changing facility,Guide dogs,Interview room,Loop Hearing,No parking	Magistrates Court
neath-and-port-talbot-county-court-and-family-court	Neath and Port Talbot County Court and Family Court	51.66159731566931	-3.799453026202654						Baby changing facility,Children facilities,Guide dogs,Interview room,Loop Hearing,Refreshments,Disabled access,Parking	County Court
aldershot-and-farnham-county-court-and-family-court	Aldershot and Farnham County Court and Family Court	51.2483647182953	-0.7595495580932524						Baby changing facility,Children facilities,Guide dogs,Interview room,Parking,Disabled access,Loop Hearing,Refreshments	County Court,Family court
wolverhampton-combined-court-centre	Wolverhampton Combined Court Centre	52.58436138762136	-2.122132134901778						Baby changing facility,Children facilities,Interview room,Loop Hearing,Wireless network connection,Parking,Video facilities,Refreshments,Disabled access,Guide dogs	County Court,Crown Court
liverpool-crown-court	Liverpool Crown Court	53.4041690732796	-2.989777781802356						Guide dogs,Interview room,Loop Hearing,Wireless network connection,Video facilities,Refreshments,Disabled access	Crown Court
london-probate-department	London Probate Department	51.51843600382902	-0.1145156479194628						Baby changing facility,Guide dogs,Interview room,Refreshments,Disabled access	
swindon-combined-court	Swindon Combined Court	51.56110319672413	-1.781910902285485						Loop Hearing,Refreshments,Witness care,Disabled access,Baby changing facility	Family court,Crown Court,County Court
kettering-county-court	Kettering County Court	52.39894568483992	-0.7271893139930198						Guide dogs,Interview room,Loop Hearing,Disabled access	County Court
cardiff-and-the-vale-magistrates-court	Cardiff and the Vale Magistrates Court	51.48211357777856	-3.166483351368593						Baby changing facility,Guide dogs,Loop Hearing,Parking,Video facilities,Disabled access,Interview room,Refreshments	Magistrates Court
exeter-combined-court-centre	Exeter Combined Court Centre	50.7213199688823	-3.525075093996485						Wireless network connection,Video facilities,Guide dogs,Interview room,Loop Hearing,Refreshments,Disabled access	Crown Court,County Court,Family court
northern-derbyshire-magistrates-court-and-family-court	Northern Derbyshire Magistrates' Court and Family Court	53.23696083594745	-1.423743531269977						Baby changing facility,Guide dogs,Video facilities,Refreshments,Disabled access,Interview room,Loop Hearing,Baby changing facility	Magistrates Court,Family court
bridgend-law-courts	Bridgend Law Courts	51.5042548656082	-3.582717676670458						Baby changing facility,Video facilities,Guide dogs,Interview room,Disabled access,Disabled toilet,Loop Hearing,Prayer / Quiet room,Public toilets,Refreshments,Waiting Room,Witness care	Family court,Magistrates Court,County Court
glasgow-tribunal-hearing-centre-wellington-house	Glasgow Tribunal Hearing Centre (Wellington House)	55.8639131126481	-4.25876355046488						Loop Hearing,Disabled access,Video facilities,Disabled toilet,First Aid,Guide dogs,Interview room,Public toilets,Refreshments,Waiting Room	Tribunal
bodmin-county-court-and-family-court	Bodmin County Court and Family Court	50.46952713166196	-4.708864729833457						Baby changing facility,Interview room,Loop Hearing,Parking,Refreshments,Guide dogs,Video facilities	Family court,County Court
swindon-magistrates-court	Swindon Magistrates' Court	51.56083187483471	-1.781061100481397						Loop Hearing,Parking,Refreshments,Disabled access,Baby changing facility,Video facilities,Guide dogs	Magistrates Court
plymouth-combined-court	Plymouth Combined Court	50.36919398667464	-4.141693801017979						Guide dogs,Video facilities,Refreshments,Loop Hearing,Disabled access,Witness care	Crown Court,County Court,Family court
north-somerset-magistrates-court	North Somerset Magistrates' Court	51.3608031593535	-2.90509473272019						Baby changing facility,Guide dogs,Loop Hearing,Refreshments,Interview room	Magistrates Court
isle-of-wight-combined-court	Isle of Wight Combined Court	50.70120848081491	-1.291858299301815						Guide dogs,Interview room,Loop Hearing,Refreshments,Disabled access	Crown Court,County Court,Family court
preston-magistrates-court	Preston Magistrates' Court	53.76353386920648	-2.70238471501666						Baby changing facility,Guide dogs,Interview room,Video facilities,Disabled access,Loop Hearing,Refreshments	Magistrates Court
carlisle-combined-court	Carlisle Combined Court	54.89355895227781	-2.931247545384483						Guide dogs,Loop Hearing,Refreshments,Wireless network connection,Disabled access,Video facilities	Crown Court
thames-magistrates-court	Thames Magistrates' Court	51.52707384537281	-0.02359412091768607						Baby changing facility,Guide dogs,Interview room,Loop Hearing,Video facilities,Disabled access	Magistrates Court
wales-enforcement-office	Wales Enforcement  Office	51.59181097916993	-3.785143661768767							
inner-london-crown-court	Inner London Crown Court	51.49818277415027	-0.09653509248865078						Guide dogs,Video facilities,Refreshments,Interview room,Disabled access,Prayer / Quiet room,Loop Hearing,Wireless network connection	Crown Court
yeovil-county-court-and-family-court	Yeovil County Court and Family Court	50.94055229504551	-2.635009815893335						Guide dogs,Interview room,Refreshments,Disabled access,No parking,Children facilities,Loop Hearing	Family court,County Court
grimsby-magistrates-court-and-family-court	Grimsby Magistrates' Court and Family Court	53.5679088429915	-0.08169236509812784						Guide dogs,Baby changing facility,Parking,Video facilities,Refreshments,Disabled access,Interview room,Loop Hearing	Tribunal,Family court,Magistrates Court
cardiff-civil-and-family-justice-centre	Cardiff Civil and Family Justice Centre	51.47824079427627	-3.179690100774156						Baby changing facility,Guide dogs,Interview room,Video facilities,Disabled access,Loop Hearing,Refreshments	
sheffield-combined-court-centre	Sheffield Combined Court Centre	53.38555573860109	-1.468739006337766						Interview room,Loop Hearing,Wireless network connection,Video facilities,Refreshments,Disabled access,No parking,Guide dogs	Crown Court
newton-aycliffe-magistrates-court-and-family-court	Newton Aycliffe Magistrates' Court and Family Court	54.62049788845199	-1.569676652039282						Baby changing facility,Interview room,Loop Hearing,Disabled access,Parking,Guide dogs,Refreshments,Video facilities	Magistrates Court,Family court
hartlepool-county-court-and-family-court	Hartlepool County Court and Family Court	54.68578198437893	-1.214005206139601						Baby changing facility,Guide dogs,Interview room,Loop Hearing,Refreshments,Disabled access	Family court,County Court
haverfordwest-county-court-and-family-court	Haverfordwest County Court and Family Court	51.80099955979597	-4.98059383129688						Baby changing facility,Children facilities,Loop Hearing,Disabled access,Refreshments,Interview room,Video facilities,Prayer / Quiet room,Parking	County Court
llanelli-county-court-and-family-court	Llanelli County Court and Family Court	51.68211361662362	-4.163128504656471						Guide dogs,Interview room,Loop Hearing,Children facilities,Parking,Disabled access	County Court
leicester-county-court-and-family-court	Leicester County Court and Family Court	52.63005253798484	-1.127105356871472						Guide dogs,Interview room,Children facilities,Parking,Video facilities,Baby changing facility,Loop Hearing,Refreshments,Disabled access	Family court,County Court
northampton-crown-court-county-court-and-family-court	Northampton Crown Court, County Court and Family Court	52.2408030271539	-0.8936399253030133						Baby changing facility,Interview room,Guide dogs,Loop Hearing,Wireless network connection,Video facilities,Disabled access,No parking,Refreshments	Family court,County Court,Crown Court
croydon-crown-court	Croydon Crown Court	51.37333817528926	-0.0921486285213919						Baby changing facility,Guide dogs,Loop Hearing,Interview room,Wireless network connection,Refreshments,Disabled access,Video facilities	Crown Court
north-tyneside-magistrates-court	North Tyneside Magistrates' Court	55.01144735064917	-1.443348111722053						Disabled access,Interview room,Video facilities,Loop Hearing,Guide dogs,Baby changing facility	Magistrates Court
newcastle-employment-tribunal	Newcastle Employment Tribunal	54.97104899248123	-1.599337154183997						Loop Hearing,Interview room,No parking	Tribunal
rhyl-county-court-and-family-court	Rhyl County Court and Family Court	53.32019914685782	-3.488506569802256						Guide dogs,Loop Hearing,Baby changing facility,Children facilities,Interview room,Parking,Disabled access	County Court
caernarfon-county-court-and-family-court	Caernarfon County Court and Family Court	53.14042912271542	-4.264334943933475						Baby changing facility,Children facilities,Guide dogs,Interview room,Loop Hearing,Parking,Prayer / Quiet room,Disabled access,Refreshments	County Court
feltham-magistrates-court	Feltham Magistrates' Court	51.44751986080112	-0.4058790072113536						Baby changing facility,Children facilities,Guide dogs,Interview room,Loop Hearing,Refreshments,Disabled access	Magistrates Court
bristol-civil-and-family-justice-centre	Bristol Civil and Family Justice Centre	51.45239588358307	-2.590567032894931						Parking,Interview room,Prayer / Quiet room,Refreshments,Children facilities,Baby changing facility,Disabled access,Loop Hearing,Video facilities,Guide dogs,Wireless network connection	County Court,Family court
york-crown-court	York Crown Court	53.95504666389839	-1.079453802035312						Baby changing facility,Interview room,Loop Hearing,Wireless network connection,Guide dogs,First Aid,Public toilets,Video facilities,Waiting Room,Baby changing facility,Refreshments	Crown Court
great-grimsby-combined-court-centre	Great Grimsby Combined Court Centre	53.56484310012786	-0.08223883158102305						Children facilities,Guide dogs,Interview room,Loop Hearing,Disabled access,Baby changing facility,Refreshments,Video facilities	Crown Court
kingston-upon-hull-combined-court-centre	Kingston-upon-Hull Combined Court Centre	53.74409906146547	-0.3317156991214816						Baby changing facility,Guide dogs,Interview room,Loop Hearing,Wireless network connection,Video facilities,Disabled access,Refreshments	Crown Court
bradford-and-keighley-magistrates-court-and-family-court	Bradford  and Keighley Magistrates' Court and Family Court	53.79176751580426	-1.754175756562888						Baby changing facility,Guide dogs,Interview room,Video facilities,Loop Hearing,Refreshments	Family court,Magistrates Court
halifax-county-court-and-family-court	Halifax County Court and Family Court	53.71927718327525	-1.860157152918378						Baby changing facility,Guide dogs,Loop Hearing,Refreshments,Disabled access,Disabled toilet,Public toilets,First Aid,Interview room	Family court,County Court
wakefield-civil-and-family-justice-centre	Wakefield Civil and Family Justice Centre	53.68280357312614	-1.50422105605746						Disabled access,Disabled toilet,Waiting Room,Interview room,Refreshments,Witness care,Baby changing facility,First Aid,Guide dogs,Loop Hearing,Prayer / Quiet room,Video facilities,Public toilets	County Court,Family court,Tribunal
nottingham-employment-tribunal	Nottingham Employment Tribunal	52.9472828452496	-1.14935417677694						Disabled access,No parking,Interview room,Loop Hearing,Refreshments	Tribunal
